GOES 1 (SMS-C)          
1 08366U 75100A   26095.55069591  .00000032  00000+0  00000+0 0  9991
2 08366   4.7926 278.3700 0004725   2.5401 346.9690  1.00244789184331
GOES 2                  
1 10061U 77048A   26095.24880990 -.00000053  00000+0  00000+0 0  9993
2 10061   6.5939 293.9791 0013720  51.6239 312.6531  0.99399916 45556
GOES 3                  
1 10953U 78062A   26095.18511262  .00000100  00000+0  00000+0 0  9998
2 10953   7.0679 299.8456 0002081   7.4690   6.9770  0.99358697127813
GOES 4                  
1 11964U 80074A   26095.34280841 -.00000094  00000+0  00000+0 0  9994
2 11964   8.1434 303.5117 0032704 104.5376  96.7251  0.99233230126713
GOES 5                  
1 12472U 81049A   26095.15547249 -.00000154  00000+0  00000+0 0  9996
2 12472   9.4900 316.1477 0004099 343.1093 214.2804  1.00206510122117
GOES 6                  
1 14050U 83041A   26095.22289941 -.00000034  00000+0  00000+0 0  9991
2 14050  10.3077 321.7038 0001709 311.4420 245.0498  1.00220973215280
GOES 7                  
1 17561U 87022A   26094.42684082  .00000000  00000+0  00000+0 0  9992
2 17561  12.9934 338.1585 0004058  24.8650 168.6782  0.99907334126220
GOES 8                  
1 23051U 94022A   26093.98239034 -.00000113  00000+0  00000+0 0  9990
2 23051  14.3674  14.2407 0005851  25.8156 163.3379  0.98906605123395
GOES 9                  
1 23581U 95025A   26094.52360547 -.00000164  00000+0  00000+0 0  9993
2 23581  13.8983  15.0896 0002777 195.7774 285.3709  0.98799732112030
GOES 10                 
1 24786U 97019A   26094.15947685 -.00000261  00000+0  00000+0 0  9997
2 24786  13.0402  21.6274 0030022 239.6985 317.4901  0.99127384105330
GOES 11                 
1 26352U 00022A   26095.20287935 -.00000287  00000+0  00000+0 0  9996
2 26352  11.6488  47.1361 0005040 263.4836  99.1741  0.99044849 51757
GOES 12                 
1 26871U 01031A   26095.56451352 -.00000225  00000+0  00000+0 0  9990
2 26871  12.0546  37.8727 0008471 302.5308 225.4649  0.99140871 90043
EWS-G1 (GOES 13)        
1 29155U 06018A   26095.55707296  .00000048  00000+0  00000+0 0  9990
2 29155   4.3448  77.2880 0061866 275.1051 119.0057  0.98784820 42530
GOES 14                 
1 35491U 09033A   26095.56720020  .00000046  00000+0  00000+0 0  9999
2 35491   1.5025  83.9206 0001842 298.9090 197.8428  1.00112117  5869
EWS-G2 (GOES 15)        
1 36411U 10008A   26095.63113951  .00000024  00000+0  00000+0 0  9999
2 36411   1.0868  84.2725 0003423  18.0388  22.1029  1.00271576 58916
GOES 16                 
1 41866U 16071A   26095.51030488 -.00000089  00000+0  00000+0 0  9997
2 41866   0.1754  85.2811 0001817 247.7312 299.8111  1.00272287 34379
GOES 17                 
1 43226U 18022A   26095.51333823 -.00000181  00000+0  00000+0 0  9999
2 43226   0.7510  86.7864 0001188 260.2321 302.0968  1.00271544 29693
